CLUSTER II-FM6
1 26410U 00041A   09297.04166667 +.00000576 +00000-0 +00000-0 0 04017
2 26410 117.8469 199.3545 8694062 037.9757 358.6013 00.42039922005147